=== Runway Viz Report ===
Generated: 2026-04-19 12:29 UTC

VGZR: FETCH FAILED - check network or API

VGEG: ALERT
LOW VISIBILITY: 3.1 miles (limit 5)
   Wind: 12 kts | Vis: 3.1 mi
   Raw METAR: METAR VGEG 191200Z 24012KT 5000 HZ FEW018 30/26 Q1005 NOSIG...

VGSY: FETCH FAILED - check network or API

VGJR: FETCH FAILED - check network or API