=== Runway Viz Report ===
Generated: 2026-05-25 19:51 UTC

VGHS: ALERT [Source: NOAA, Time: 2026-05-25T19:51:27.719138]
LOW VISIBILITY: 2.2 miles (limit 5)
   Wind: 6 kts 130° | Vis: 2.2 mi
   Temp: 25°C | Dew: 23°C
   QNH: 1003 hPa
   Raw: METAR VGHS 251900Z 13006KT 3500 HZ SCT012 BKN100 25/23 Q1003 NOSIG...

VGEG: FETCH FAILED - all sources unavailable