=== Runway Viz Report ===
Generated: 2026-04-19 15:45 UTC

VGHS: ALERT
LOW VISIBILITY: 2.5 miles (limit 5)
   Wind: 8 kts 200° | Vis: 2.5 mi
   Raw METAR: METAR VGHS 191530Z 20008KT 4000 HZ SCT015 BKN100 30/25 Q1007 NOSIG...

VGEG: ALERT
LOW VISIBILITY: 3.1 miles (limit 5)
   Wind: 10 kts 220° | Vis: 3.1 mi
   Raw METAR: METAR VGEG 191500Z 22010KT 5000 HZ SCT018 29/26 Q1007 NOSIG...

VGSY: FETCH FAILED - no METAR data

VGJR: FETCH FAILED - no METAR data