=== Runway Viz Report ===
Generated: 2026-05-26 23:15 UTC

VGHS: ALERT [Source: NOAA, Time: 2026-05-26T23:15:38.499612]
LOW VISIBILITY: 2.2 miles (limit 5)
   Wind: 4 kts 90° | Vis: 2.2 mi
   Temp: 24°C | Dew: 22°C
   QNH: 1006 hPa
   Raw: METAR VGHS 262300Z 09004KT 3500 HZ SCT012 BKN100 24/22 Q1006 TEMPO RA...

VGEG: FETCH FAILED - all sources unavailable