=== Runway Viz Report ===
Generated: 2026-05-25 23:13 UTC

VGHS: ALERT [Source: NOAA, Time: 2026-05-25T23:13:29.219622]
LOW VISIBILITY: 1.7 miles (limit 5)
   Wind: 9 kts 30° | Vis: 1.7 mi
   ⛈️ Thunderstorm reported
   Temp: 22°C | Dew: 21°C
   QNH: 1006 hPa
   Raw: METAR VGHS 252300Z 03009KT 2800 DZ BKN010 FEW025CB BKN100 22/21 Q1006 TEMPO TSRA...

VGEG: FETCH FAILED - all sources unavailable