=== Runway Viz Report ===
Generated: 2026-04-19 16:51 UTC

VGHS: ALERT
LOW VISIBILITY: 2.5 miles (limit 5)
   Wind: 9 kts 180° | Vis: 2.5 mi
   Raw METAR: METAR VGHS 191630Z 18009KT 4000 HZ FEW015 SCT100 29/25 Q1007 NOSIG...

VGEG: ALERT
LOW VISIBILITY: 3.1 miles (limit 5)
   Wind: 10 kts 220° | Vis: 3.1 mi
   Raw METAR: METAR VGEG 191600Z 22010KT 5000 HZ FEW018 SCT100 29/26 Q1008 NOSIG...

VGSY: FETCH FAILED - no METAR data

VGJR: FETCH FAILED - no METAR data