=== Runway Viz Report ===
Generated: 2026-05-24 10:46 UTC

VGHS: ALERT [Source: NOAA, Time: 2026-05-24T10:46:29.487996]
CROSSWIND ALERT: 15 kts (limit 12)
LOW VISIBILITY: 2.0 miles (limit 5)
   Wind: 15 kts 50° | Vis: 2.0 mi
   ⛈️ Thunderstorm reported
   Temp: 28°C | Dew: 25°C
   QNH: 1005 hPa
   Raw: METAR VGHS 241030Z 05015KT 3200 TSRA BKN010 FEW025CB OVC090 28/25 Q1005 TEMPO TSRA...

VGEG: FETCH FAILED - all sources unavailable