=== Runway Viz Report ===
Generated: 2026-04-19 17:46 UTC

VGZR: FETCH FAILED - check network or API

VGEG: ALERT
LOW VISIBILITY: 3.7 miles (limit 5)
   Wind: 10 kts | Vis: 3.7 mi
   Raw METAR: METAR VGEG 191100Z 22010KT 6000 HZ FEW018 31/26 Q1005 NOSIG...

VGSY: FETCH FAILED - check network or API

VGJR: FETCH FAILED - check network or API