=== Runway Viz Report ===
Generated: 2026-05-24 12:05 UTC

VGHS: ALERT [Source: NOAA, Time: 2026-05-24T12:05:07.573229]
LOW VISIBILITY: 1.7 miles (limit 5)
   Wind: 8 kts 110° | Vis: 1.7 mi
   ⛈️ Thunderstorm reported
   Temp: 24°C | Dew: 22°C
   QNH: 1004 hPa
   Raw: METAR VGHS 241130Z 11008KT 2800 TSRA BKN010 FEW025CB BKN100 24/22 Q1004 TEMPO TSRA...

VGEG: FETCH FAILED - all sources unavailable