=== Runway Viz Report ===
Generated: 2026-05-24 08:40 UTC

VGHS: ALERT [Source: NOAA, Time: 2026-05-24T08:40:02.793112]
LOW VISIBILITY: 2.5 miles (limit 5)
   Wind: 7 kts 150° | Vis: 2.5 mi
   Temp: 34°C | Dew: 27°C
   QNH: 1004 hPa
   Raw: METAR VGHS 240830Z 15007KT 4000 HZ SCT015 BKN100 34/27 Q1004 NOSIG...

VGEG: FETCH FAILED - all sources unavailable