=== Runway Viz Report ===
Generated: 2026-05-25 10:23 UTC

VGHS: ALERT [Source: NOAA, Time: 2026-05-25T10:23:26.708924]
LOW VISIBILITY: 2.2 miles (limit 5)
   Wind: 4 kts 120° | Vis: 2.2 mi
   ⛈️ Thunderstorm reported
   Temp: 25°C | Dew: 23°C
   QNH: 1004 hPa
   Raw: METAR VGHS 250930Z 12004KT 3500 HZ SCT010 FEW025CB BKN100 25/23 Q1004 TEMPO TSRA...

VGEG: FETCH FAILED - all sources unavailable